[{"OBJECT_NAME":"CALSPHERE 1","OBJECT_ID":"1964-063C","EPOCH":"2026-04-27T05:19:33.482784","MEAN_MOTION":13.76562178,"ECCENTRICITY":0.00284061,"INCLINATION":90.2216,"RA_OF_ASC_NODE":70.5704,"ARG_OF_PERICENTER":85.43,"MEAN_ANOMALY":23.0926,"EPHEMERIS_TYPE":0,"CLASSIFICATION_TYPE":"U","NORAD_CAT_ID":900,"ELEMENT_SET_NO":999,"REV_AT_EPOCH":6441,"BSTAR":0.00073120785,"MEAN_MOTION_DOT":7.28e-6,"MEAN_MOTION_DDOT":0},{"OBJECT_NAME":"CALSPHERE 2","OBJECT_ID":"1964-063E","EPOCH":"2026-04-27T07:23:12.725952","MEAN_MOTION":13.52896295,"ECCENTRICITY":0.0019333,"INCLINATION":90.2344,"RA_OF_ASC_NODE":74.573,"ARG_OF_PERICENTER":21.1193,"MEAN_ANOMALY":102.5062,"EPHEMERIS_TYPE":0,"CLASSIFICATION_TYPE":"U","NORAD_CAT_ID":902,"ELEMENT_SET_NO":999,"REV_AT_EPOCH":84938,"BSTAR":9.6378694e-5,"MEAN_MOTION_DOT":7.3e-7,"MEAN_MOTION_DDOT":0},{"OBJECT_NAME":"LCS 1","OBJECT_ID":"1965-034C","EPOCH":"2026-04-27T04:16:12.355392","MEAN_MOTION":9.893102,"ECCENTRICITY":0.00132021,"INCLINATION":32.1439,"RA_OF_ASC_NODE":298.1439,"ARG_OF_PERICENTER":300.5032,"MEAN_ANOMALY":59.4161,"EPHEMERIS_TYPE":0,"CLASSIFICATION_TYPE":"U","NORAD_CAT_ID":1361,"ELEMENT_SET_NO":999,"REV_AT_EPOCH":20483,"BSTAR":0.00088887443,"MEAN_MOTION_DOT":1.5e-7,"MEAN_MOTION_DDOT":0},{"OBJECT_NAME":"TEMPSAT 1","OBJECT_ID":"1965-065E","EPOCH":"2026-04-27T06:22:37.814880","MEAN_MOTION":13.33591603,"ECCENTRICITY":0.00705414,"INCLINATION":90.0008,"RA_OF_ASC_NODE":212.5835,"ARG_OF_PERICENTER":33.1679,"MEAN_ANOMALY":20.7204,"EPHEMERIS_TYPE":0,"CLASSIFICATION_TYPE":"U","NORAD_CAT_ID":1512,"ELEMENT_SET_NO":999,"REV_AT_EPOCH":95326,"BSTAR":1.0728157e-5,"MEAN_MOTION_DOT":1.5e-7,"MEAN_MOTION_DDOT":0},{"OBJECT_NAME":"CALSPHERE 4A","OBJECT_ID":"1965-065H","EPOCH":"2026-04-27T07:08:43.158336","MEAN_MOTION":13.36268498,"ECCENTRICITY":0.00677713,"INCLINATION":89.8963,"RA_OF_ASC_NODE":122.9951,"ARG_OF_PERICENTER":246.5366,"MEAN_ANOMALY":130.5911,"EPHEMERIS_TYPE":0,"CLASSIFICATION_TYPE":"U","NORAD_CAT_ID":1520,"ELEMENT_SET_NO":999,"REV_AT_EPOCH":95591,"BSTAR":0.00022314457,"MEAN_MOTION_DOT":1.25e-6,"MEAN_MOTION_DDOT":0},{"OBJECT_NAME":"OPS 5712 (P/L 160)","OBJECT_ID":"1967-053A","EPOCH":"2026-04-27T06:25:30.458496","MEAN_MOTION":14.77013528,"ECCENTRICITY":0.00020575,"INCLINATION":69.9166,"RA_OF_ASC_NODE":163.0285,"ARG_OF_PERICENTER":243.0086,"MEAN_ANOMALY":117.0851,"EPHEMERIS_TYPE":0,"CLASSIFICATION_TYPE":"U","NORAD_CAT_ID":2826,"ELEMENT_SET_NO":999,"REV_AT_EPOCH":5871,"BSTAR":0.0011240494,"MEAN_MOTION_DOT":7.869e-5,"MEAN_MOTION_DDOT":0},{"OBJECT_NAME":"OPS 5712 (P/L 153)","OBJECT_ID":"1967-053H","EPOCH":"2026-04-27T06:44:05.693280","MEAN_MOTION":13.96820759,"ECCENTRICITY":0.00100591,"INCLINATION":69.9743,"RA_OF_ASC_NODE":224.4174,"ARG_OF_PERICENTER":263.7043,"MEAN_ANOMALY":96.2917,"EPHEMERIS_TYPE":0,"CLASSIFICATION_TYPE":"U","NORAD_CAT_ID":2874,"ELEMENT_SET_NO":999,"REV_AT_EPOCH":99967,"BSTAR":5.3664865e-5,"MEAN_MOTION_DOT":2.1e-7,"MEAN_MOTION_DDOT":0},{"OBJECT_NAME":"RIGIDSPHERE 2 (LCS 4)","OBJECT_ID":"1971-067E","EPOCH":"2026-04-27T05:59:27.015936","MEAN_MOTION":14.37810992,"ECCENTRICITY":0.00616512,"INCLINATION":87.6251,"RA_OF_ASC_NODE":352.9565,"ARG_OF_PERICENTER":43.4393,"MEAN_ANOMALY":317.1639,"EPHEMERIS_TYPE":0,"CLASSIFICATION_TYPE":"U","NORAD_CAT_ID":5398,"ELEMENT_SET_NO":999,"REV_AT_EPOCH":86656,"BSTAR":0.0002215063,"MEAN_MOTION_DOT":7.0e-6,"MEAN_MOTION_DDOT":0},{"OBJECT_NAME":"COSMOS 2493 (SKRL-756 1)","OBJECT_ID":"2013-078A","EPOCH":"2026-04-27T06:07:15.614976","MEAN_MOTION":15.01880925,"ECCENTRICITY":0.00144118,"INCLINATION":82.4107,"RA_OF_ASC_NODE":311.0133,"ARG_OF_PERICENTER":60.2844,"MEAN_ANOMALY":299.9813,"EPHEMERIS_TYPE":0,"CLASSIFICATION_TYPE":"U","NORAD_CAT_ID":39490,"ELEMENT_SET_NO":999,"REV_AT_EPOCH":67031,"BSTAR":0.00024122244,"MEAN_MOTION_DOT":3.183e-5,"MEAN_MOTION_DDOT":0},{"OBJECT_NAME":"COSMOS 2494 (SKRL-756 2)","OBJECT_ID":"2013-078B","EPOCH":"2026-04-27T06:39:20.454048","MEAN_MOTION":15.04551206,"ECCENTRICITY":0.00164439,"INCLINATION":82.4101,"RA_OF_ASC_NODE":300.5907,"ARG_OF_PERICENTER":22.811,"MEAN_ANOMALY":337.3843,"EPHEMERIS_TYPE":0,"CLASSIFICATION_TYPE":"U","NORAD_CAT_ID":39491,"ELEMENT_SET_NO":999,"REV_AT_EPOCH":67115,"BSTAR":0.00025951301,"MEAN_MOTION_DOT":3.675e-5,"MEAN_MOTION_DDOT":0}]
