CALSPHERE 1             
1 00900U 64063C   26117.22191531  .00000728  00000+0  73121-3 0  9992
2 00900  90.2216  70.5704 0028406  85.4300  23.0926 13.76562178 64417
CALSPHERE 2             
1 00902U 64063E   26117.30778618  .00000073  00000+0  96379-4 0  9994
2 00902  90.2344  74.5730 0019333  21.1193 102.5062 13.52896295849385
LCS 1                   
1 01361U 65034C   26117.17792078  .00000015  00000+0  88887-3 0  9994
2 01361  32.1439 298.1439 0013202 300.5032  59.4161  9.89310200204837
TEMPSAT 1               
1 01512U 65065E   26117.26571545  .00000015  00000+0  10728-4 0  9990
2 01512  90.0008 212.5835 0070541  33.1679  20.7204 13.33591603953264
CALSPHERE 4A            
1 01520U 65065H   26117.29772174  .00000125  00000+0  22314-3 0  9998
2 01520  89.8963 122.9951 0067771 246.5366 130.5911 13.36268498955911
OPS 5712 (P/L 160)      
1 02826U 67053A   26117.26771364  .00007869  00000+0  11240-2 0  9991
2 02826  69.9166 163.0285 0002057 243.0086 117.0851 14.77013528 58711
OPS 5712 (P/L 153)      
1 02874U 67053H   26117.28062145  .00000021  00000+0  53665-4 0  9998
2 02874  69.9743 224.4174 0010059 263.7043  96.2917 13.96820759999679
RIGIDSPHERE 2 (LCS 4)   
1 05398U 71067E   26117.24961824  .00000700  00000+0  22151-3 0  9999
2 05398  87.6251 352.9565 0061651  43.4393 317.1639 14.37810992866561
COSMOS 2493 (SKRL-756 1)
1 39490U 13078A   26117.25504184  .00003183  00000+0  24122-3 0  9998
2 39490  82.4107 311.0133 0014411  60.2844 299.9813 15.01880925670313
COSMOS 2494 (SKRL-756 2)
1 39491U 13078B   26117.27732007  .00003675  00000+0  25951-3 0  9995
2 39491  82.4101 300.5907 0016443  22.8110 337.3843 15.04551206671150
